{
  "type": "FeatureCollection",
  "features": [
    {
      "type": "Feature",
      "properties": {
        "norad_id": 33412,
        "name": "COSMO-SKYMED 3",
        "group": "resource",
        "lat": -26.47571524375844,
        "lon": -157.79085762925212,
        "alt_km": 566.8155079631424,
        "timestamp": "2025-12-13T20:38:50.651514+00:00",
        "meta_object_name": "COSMO-SKYMED 3",
        "meta_object_id": "2008-054A",
        "meta_epoch": "2025-12-13T08:00:14.373216",
        "meta_mean_motion": 15.05364359,
        "meta_eccentricity": 0.00160788,
        "meta_inclination": 97.8473,
        "meta_ra_of_asc_node": 197.7348,
        "meta_arg_of_pericenter": 171.5785,
        "meta_mean_anomaly": 188.5714,
        "meta_ephemeris_type": 0,
        "meta_classification_type": "U",
        "meta_norad_cat_id": 33412,
        "meta_element_set_no": 999,
        "meta_rev_at_epoch": 92896,
        "meta_bstar": 0.00043513291,
        "meta_mean_motion_dot": 6.189e-05,
        "meta_mean_motion_ddot": 0,
        "tle_line1": "1 33412U 08054A   25347.33349969  .00006189  00000+0  43513-3 0  9999",
        "tle_line2": "2 33412  97.8473 197.7348 0016078 171.5785 188.5714 15.05364359928967"
      },
      "geometry": {
        "type": "Point",
        "coordinates": [
          -157.79085762925212,
          -26.47571524375844
        ]
      }
    },
    {
      "type": "Feature",
      "properties": {
        "norad_id": 33446,
        "name": "YAOGAN-4",
        "group": "resource",
        "lat": -42.70333181996976,
        "lon": 90.56894810307472,
        "alt_km": 628.5585460603352,
        "timestamp": "2025-12-13T20:38:50.651525+00:00",
        "meta_object_name": "YAOGAN-4",
        "meta_object_id": "2008-061A",
        "meta_epoch": "2025-12-13T06:41:08.234592",
        "meta_mean_motion": 14.8268628,
        "meta_eccentricity": 0.00135434,
        "meta_inclination": 97.9181,
        "meta_ra_of_asc_node": 277.3727,
        "meta_arg_of_pericenter": 321.4814,
        "meta_mean_anomaly": 38.5431,
        "meta_ephemeris_type": 0,
        "meta_classification_type": "U",
        "meta_norad_cat_id": 33446,
        "meta_element_set_no": 999,
        "meta_rev_at_epoch": 91811,
        "meta_bstar": 0.00032331381,
        "meta_mean_motion_dot": 2.558e-05,
        "meta_mean_motion_ddot": 0,
        "tle_line1": "1 33446U 08061A   25347.27856753  .00002558  00000+0  32331-3 0  9993",
        "tle_line2": "2 33446  97.9181 277.3727 0013543 321.4814  38.5431 14.82686280918110"
      },
      "geometry": {
        "type": "Point",
        "coordinates": [
          90.56894810307472,
          -42.70333181996976
        ]
      }
    },
    {
      "type": "Feature",
      "properties": {
        "norad_id": 33492,
        "name": "GOSAT (IBUKI)",
        "group": "resource",
        "lat": -34.11866568851515,
        "lon": -89.07319062085304,
        "alt_km": 675.4553193882493,
        "timestamp": "2025-12-13T20:38:50.651536+00:00",
        "meta_object_name": "GOSAT (IBUKI)",
        "meta_object_id": "2009-002A",
        "meta_epoch": "2025-12-13T06:34:57.648576",
        "meta_mean_motion": 14.67557071,
        "meta_eccentricity": 9.365e-05,
        "meta_inclination": 98.0769,
        "meta_ra_of_asc_node": 95.8701,
        "meta_arg_of_pericenter": 92.3539,
        "meta_mean_anomaly": 267.7773,
        "meta_ephemeris_type": 0,
        "meta_classification_type": "U",
        "meta_norad_cat_id": 33492,
        "meta_element_set_no": 999,
        "meta_rev_at_epoch": 90419,
        "meta_bstar": 0.000261927,
        "meta_mean_motion_dot": 1.438e-05,
        "meta_mean_motion_ddot": 0,
        "tle_line1": "1 33492U 09002A   25347.27427834  .00001438  00000+0  26193-3 0  9999",
        "tle_line2": "2 33492  98.0769  95.8701 0000936  92.3539 267.7773 14.67557071904196"
      },
      "geometry": {
        "type": "Point",
        "coordinates": [
          -89.07319062085304,
          -34.11866568851515
        ]
      }
    },
    {
      "type": "Feature",
      "properties": {
        "norad_id": 35681,
        "name": "DEIMOS-1",
        "group": "resource",
        "lat": -37.79137978122681,
        "lon": 154.44529470526885,
        "alt_km": 652.5532436303847,
        "timestamp": "2025-12-13T20:38:50.651548+00:00",
        "meta_object_name": "DEIMOS-1",
        "meta_object_id": "2009-041A",
        "meta_epoch": "2025-12-13T07:47:41.943264",
        "meta_mean_motion": 14.74954265,
        "meta_eccentricity": 0.00027458,
        "meta_inclination": 97.7151,
        "meta_ra_of_asc_node": 147.9007,
        "meta_arg_of_pericenter": 79.152,
        "meta_mean_anomaly": 280.9999,
        "meta_ephemeris_type": 0,
        "meta_classification_type": "U",
        "meta_norad_cat_id": 35681,
        "meta_element_set_no": 999,
        "meta_rev_at_epoch": 87948,
        "meta_bstar": 0.00018147471,
        "meta_mean_motion_dot": 1.172e-05,
        "meta_mean_motion_ddot": 0,
        "tle_line1": "1 35681U 09041A   25347.32479101  .00001172  00000+0  18147-3 0  9999",
        "tle_line2": "2 35681  97.7151 147.9007 0002745  79.1520 280.9999 14.74954265879484"
      },
      "geometry": {
        "type": "Point",
        "coordinates": [
          154.44529470526885,
          -37.79137978122681
        ]
      }
    },
    {
      "type": "Feature",
      "properties": {
        "norad_id": 35682,
        "name": "DUBAISAT-1",
        "group": "resource",
        "lat": -73.37550073268162,
        "lon": -89.49342709269075,
        "alt_km": 649.9087729027951,
        "timestamp": "2025-12-13T20:38:50.651559+00:00",
        "meta_object_name": "DUBAISAT-1",
        "meta_object_id": "2009-041B",
        "meta_epoch": "2025-12-13T08:05:32.518752",
        "meta_mean_motion": 14.74607844,
        "meta_eccentricity": 0.00095229,
        "meta_inclination": 97.9784,
        "meta_ra_of_asc_node": 118.0079,
        "meta_arg_of_pericenter": 312.5561,
        "meta_mean_anomaly": 47.4843,
        "meta_ephemeris_type": 0,
        "meta_classification_type": "U",
        "meta_norad_cat_id": 35682,
        "meta_element_set_no": 999,
        "meta_rev_at_epoch": 87770,
        "meta_bstar": 0.00034970241,
        "meta_mean_motion_dot": 2.282e-05,
        "meta_mean_motion_ddot": 0,
        "tle_line1": "1 35682U 09041B   25347.33718193  .00002282  00000+0  34970-3 0  9993",
        "tle_line2": "2 35682  97.9784 118.0079 0009522 312.5561  47.4843 14.74607844877701"
      },
      "geometry": {
        "type": "Point",
        "coordinates": [
          -89.49342709269075,
          -73.37550073268162
        ]
      }
    },
    {
      "type": "Feature",
      "properties": {
        "norad_id": 35931,
        "name": "OCEANSAT-2",
        "group": "resource",
        "lat": 48.148995062228245,
        "lon": 177.63682692144926,
        "alt_km": 890.5456813900464,
        "timestamp": "2025-12-13T20:38:50.651570+00:00",
        "meta_object_name": "OCEANSAT-2",
        "meta_object_id": "2009-051A",
        "meta_epoch": "2025-12-13T06:17:56.194944",
        "meta_mean_motion": 13.99624549,
        "meta_eccentricity": 0.00162037,
        "meta_inclination": 98.2222,
        "meta_ra_of_asc_node": 347.8101,
        "meta_arg_of_pericenter": 43.6882,
        "meta_mean_anomaly": 316.5564,
        "meta_ephemeris_type": 0,
        "meta_classification_type": "U",
        "meta_norad_cat_id": 35931,
        "meta_element_set_no": 999,
        "meta_rev_at_epoch": 85332,
        "meta_bstar": -6.7280855e-05,
        "meta_mean_motion_dot": -1.36e-06,
        "meta_mean_motion_ddot": 0,
        "tle_line1": "1 35931U 09051A   25347.26245596 -.00000136  00000+0 -67281-4 0  9995",
        "tle_line2": "2 35931  98.2222 347.8101 0016203  43.6882 316.5564 13.99624549853328"
      },
      "geometry": {
        "type": "Point",
        "coordinates": [
          177.63682692144926,
          48.148995062228245
        ]
      }
    },
    {
      "type": "Feature",
      "properties": {
        "norad_id": 35946,
        "name": "WORLDVIEW-2 (WV-2)",
        "group": "resource",
        "lat": 44.965263859515034,
        "lon": 50.36066437713414,
        "alt_km": 758.7234933005439,
        "timestamp": "2025-12-13T20:38:50.651581+00:00",
        "meta_object_name": "WORLDVIEW-2 (WV-2)",
        "meta_object_id": "2009-055A",
        "meta_epoch": "2025-12-13T07:04:26.520096",
        "meta_mean_motion": 14.37724436,
        "meta_eccentricity": 0.0005166,
        "meta_inclination": 98.4788,
        "meta_ra_of_asc_node": 58.3712,
        "meta_arg_of_pericenter": 69.2893,
        "meta_mean_anomaly": 290.8847,
        "meta_ephemeris_type": 0,
        "meta_classification_type": "U",
        "meta_norad_cat_id": 35946,
        "meta_element_set_no": 999,
        "meta_rev_at_epoch": 84893,
        "meta_bstar": 0.00010732888,
        "meta_mean_motion_dot": 2.79e-06,
        "meta_mean_motion_ddot": 0,
        "tle_line1": "1 35946U 09055A   25347.29475139  .00000279  00000+0  10733-3 0  9991",
        "tle_line2": "2 35946  98.4788  58.3712 0005166  69.2893 290.8847 14.37724436848935"
      },
      "geometry": {
        "type": "Point",
        "coordinates": [
          50.36066437713414,
          44.965263859515034
        ]
      }
    }
  ]
}